[{"OBJECT_NAME":"ONEWEB-0375","OBJECT_ID":"2021-090Y","EPOCH":"2025-11-15T16:37:59.649600","MEAN_MOTION":13.20772866,"ECCENTRICITY":0.0001303,"INCLINATION":87.9179,"RA_OF_ASC_NODE":317.0146,"ARG_OF_PERICENTER":95.5496,"MEAN_ANOMALY":264.5786,"EPHEMERIS_TYPE":0,"CLASSIFICATION_TYPE":"U","NORAD_CAT_ID":49301,"ELEMENT_SET_NO":999,"REV_AT_EPOCH":20234,"BSTAR":5.5215e-5,"MEAN_MOTION_DOT":3.5e-7,"MEAN_MOTION_DDOT":0},{"OBJECT_NAME":"ONEWEB-0376","OBJECT_ID":"2021-090Z","EPOCH":"2025-11-15T12:52:39.349056","MEAN_MOTION":13.19725441,"ECCENTRICITY":0.0002089,"INCLINATION":87.9223,"RA_OF_ASC_NODE":347.4636,"ARG_OF_PERICENTER":96.8129,"MEAN_ANOMALY":263.3241,"EPHEMERIS_TYPE":0,"CLASSIFICATION_TYPE":"U","NORAD_CAT_ID":49302,"ELEMENT_SET_NO":999,"REV_AT_EPOCH":19827,"BSTAR":0.00016889,"MEAN_MOTION_DOT":8.1e-7,"MEAN_MOTION_DDOT":0},{"OBJECT_NAME":"ONEWEB-0377","OBJECT_ID":"2021-090AA","EPOCH":"2025-11-15T10:50:28.248576","MEAN_MOTION":13.20772309,"ECCENTRICITY":0.0001736,"INCLINATION":87.9183,"RA_OF_ASC_NODE":317.0614,"ARG_OF_PERICENTER":84.4005,"MEAN_ANOMALY":275.7327,"EPHEMERIS_TYPE":0,"CLASSIFICATION_TYPE":"U","NORAD_CAT_ID":49303,"ELEMENT_SET_NO":999,"REV_AT_EPOCH":20230,"BSTAR":-8.6793e-5,"MEAN_MOTION_DOT":-2.2e-7,"MEAN_MOTION_DDOT":0},{"OBJECT_NAME":"ONEWEB-0378","OBJECT_ID":"2021-090AB","EPOCH":"2025-11-15T16:49:32.935296","MEAN_MOTION":13.20774462,"ECCENTRICITY":0.000173,"INCLINATION":87.9183,"RA_OF_ASC_NODE":317.0268,"ARG_OF_PERICENTER":92.3891,"MEAN_ANOMALY":267.7441,"EPHEMERIS_TYPE":0,"CLASSIFICATION_TYPE":"U","NORAD_CAT_ID":49304,"ELEMENT_SET_NO":999,"REV_AT_EPOCH":20160,"BSTAR":8.9326e-5,"MEAN_MOTION_DOT":4.9e-7,"MEAN_MOTION_DDOT":0},{"OBJECT_NAME":"ONEWEB-0379","OBJECT_ID":"2021-090AC","EPOCH":"2025-11-15T10:49:57.243072","MEAN_MOTION":13.14502338,"ECCENTRICITY":0.0001838,"INCLINATION":87.8991,"RA_OF_ASC_NODE":332.2883,"ARG_OF_PERICENTER":96.5945,"MEAN_ANOMALY":263.5394,"EPHEMERIS_TYPE":0,"CLASSIFICATION_TYPE":"U","NORAD_CAT_ID":49305,"ELEMENT_SET_NO":999,"REV_AT_EPOCH":19948,"BSTAR":-0.00041907,"MEAN_MOTION_DOT":-1.43e-6,"MEAN_MOTION_DDOT":0},{"OBJECT_NAME":"ONEWEB-0380","OBJECT_ID":"2021-090AD","EPOCH":"2025-11-15T12:48:05.969088","MEAN_MOTION":13.19727303,"ECCENTRICITY":0.0001497,"INCLINATION":87.9218,"RA_OF_ASC_NODE":347.4877,"ARG_OF_PERICENTER":94.33,"MEAN_ANOMALY":265.8004,"EPHEMERIS_TYPE":0,"CLASSIFICATION_TYPE":"U","NORAD_CAT_ID":49306,"ELEMENT_SET_NO":999,"REV_AT_EPOCH":19824,"BSTAR":0.00020223,"MEAN_MOTION_DOT":9.4e-7,"MEAN_MOTION_DDOT":0},{"OBJECT_NAME":"ONEWEB-0381","OBJECT_ID":"2021-090AE","EPOCH":"2025-11-15T10:45:43.240896","MEAN_MOTION":13.20772606,"ECCENTRICITY":0.0001592,"INCLINATION":87.9179,"RA_OF_ASC_NODE":317.0665,"ARG_OF_PERICENTER":92.5785,"MEAN_ANOMALY":267.5531,"EPHEMERIS_TYPE":0,"CLASSIFICATION_TYPE":"U","NORAD_CAT_ID":49307,"ELEMENT_SET_NO":999,"REV_AT_EPOCH":20161,"BSTAR":-0.00011406,"MEAN_MOTION_DOT":-3.3e-7,"MEAN_MOTION_DDOT":0},{"OBJECT_NAME":"ONEWEB-0382","OBJECT_ID":"2021-090AF","EPOCH":"2025-11-15T10:27:33.031008","MEAN_MOTION":13.20772271,"ECCENTRICITY":0.0001604,"INCLINATION":87.9187,"RA_OF_ASC_NODE":317.063,"ARG_OF_PERICENTER":97.3442,"MEAN_ANOMALY":262.7874,"EPHEMERIS_TYPE":0,"CLASSIFICATION_TYPE":"U","NORAD_CAT_ID":49308,"ELEMENT_SET_NO":999,"REV_AT_EPOCH":20160,"BSTAR":9.3933e-5,"MEAN_MOTION_DOT":5.1e-7,"MEAN_MOTION_DDOT":0},{"OBJECT_NAME":"ONEWEB-0383","OBJECT_ID":"2021-090AG","EPOCH":"2025-11-15T10:40:47.795232","MEAN_MOTION":13.14502724,"ECCENTRICITY":0.0001777,"INCLINATION":87.8996,"RA_OF_ASC_NODE":332.2735,"ARG_OF_PERICENTER":98.9721,"MEAN_ANOMALY":261.161,"EPHEMERIS_TYPE":0,"CLASSIFICATION_TYPE":"U","NORAD_CAT_ID":49309,"ELEMENT_SET_NO":999,"REV_AT_EPOCH":19951,"BSTAR":-0.00093699,"MEAN_MOTION_DOT":-3.35e-6,"MEAN_MOTION_DDOT":0},{"OBJECT_NAME":"ONEWEB-0384","OBJECT_ID":"2021-090AH","EPOCH":"2025-11-15T10:18:50.334336","MEAN_MOTION":13.20796998,"ECCENTRICITY":0.000158,"INCLINATION":87.92,"RA_OF_ASC_NODE":317.098,"ARG_OF_PERICENTER":104.9819,"MEAN_ANOMALY":255.149,"EPHEMERIS_TYPE":0,"CLASSIFICATION_TYPE":"U","NORAD_CAT_ID":49310,"ELEMENT_SET_NO":999,"REV_AT_EPOCH":20161,"BSTAR":9.051e-5,"MEAN_MOTION_DOT":5.0e-7,"MEAN_MOTION_DDOT":0},{"OBJECT_NAME":"ONEWEB-0385","OBJECT_ID":"2021-090AJ","EPOCH":"2025-11-15T12:05:14.966016","MEAN_MOTION":13.20770994,"ECCENTRICITY":0.000176,"INCLINATION":87.9181,"RA_OF_ASC_NODE":317.0568,"ARG_OF_PERICENTER":93.4284,"MEAN_ANOMALY":266.7051,"EPHEMERIS_TYPE":0,"CLASSIFICATION_TYPE":"U","NORAD_CAT_ID":49311,"ELEMENT_SET_NO":999,"REV_AT_EPOCH":20159,"BSTAR":3.4325e-5,"MEAN_MOTION_DOT":2.7e-7,"MEAN_MOTION_DDOT":0},{"OBJECT_NAME":"ONEWEB-0386","OBJECT_ID":"2021-090AK","EPOCH":"2025-11-15T10:41:10.222944","MEAN_MOTION":13.20773351,"ECCENTRICITY":0.0001672,"INCLINATION":87.9185,"RA_OF_ASC_NODE":317.0501,"ARG_OF_PERICENTER":97.5106,"MEAN_ANOMALY":262.6217,"EPHEMERIS_TYPE":0,"CLASSIFICATION_TYPE":"U","NORAD_CAT_ID":49312,"ELEMENT_SET_NO":999,"REV_AT_EPOCH":20160,"BSTAR":9.195e-5,"MEAN_MOTION_DOT":5.0e-7,"MEAN_MOTION_DDOT":0},{"OBJECT_NAME":"ONEWEB-0387","OBJECT_ID":"2021-090AL","EPOCH":"2025-11-15T12:07:32.919168","MEAN_MOTION":13.20772207,"ECCENTRICITY":0.0001547,"INCLINATION":87.9179,"RA_OF_ASC_NODE":317.0858,"ARG_OF_PERICENTER":86.0507,"MEAN_ANOMALY":274.0803,"EPHEMERIS_TYPE":0,"CLASSIFICATION_TYPE":"U","NORAD_CAT_ID":49313,"ELEMENT_SET_NO":999,"REV_AT_EPOCH":20161,"BSTAR":0.00019572,"MEAN_MOTION_DOT":9.3e-7,"MEAN_MOTION_DDOT":0},{"OBJECT_NAME":"ONEWEB-0388","OBJECT_ID":"2021-090AM","EPOCH":"2025-11-15T19:57:59.057856","MEAN_MOTION":13.19726377,"ECCENTRICITY":0.0001776,"INCLINATION":87.9207,"RA_OF_ASC_NODE":347.4316,"ARG_OF_PERICENTER":99.0478,"MEAN_ANOMALY":261.0856,"EPHEMERIS_TYPE":0,"CLASSIFICATION_TYPE":"U","NORAD_CAT_ID":49314,"ELEMENT_SET_NO":999,"REV_AT_EPOCH":19827,"BSTAR":-0.00014588,"MEAN_MOTION_DOT":-4.5e-7,"MEAN_MOTION_DDOT":0},{"OBJECT_NAME":"ONEWEB-0389","OBJECT_ID":"2021-132A","EPOCH":"2025-11-15T15:59:19.336992","MEAN_MOTION":13.17648588,"ECCENTRICITY":0.0001361,"INCLINATION":87.914,"RA_OF_ASC_NODE":48.3293,"ARG_OF_PERICENTER":107.2441,"MEAN_ANOMALY":252.8839,"EPHEMERIS_TYPE":0,"CLASSIFICATION_TYPE":"U","NORAD_CAT_ID":50469,"ELEMENT_SET_NO":999,"REV_AT_EPOCH":18996,"BSTAR":3.1456e-5,"MEAN_MOTION_DOT":2.5e-7,"MEAN_MOTION_DDOT":0},{"OBJECT_NAME":"ONEWEB-0390","OBJECT_ID":"2021-132B","EPOCH":"2025-11-15T16:01:45.608736","MEAN_MOTION":13.17650747,"ECCENTRICITY":0.0001782,"INCLINATION":87.9134,"RA_OF_ASC_NODE":48.3332,"ARG_OF_PERICENTER":93.4648,"MEAN_ANOMALY":266.6687,"EPHEMERIS_TYPE":0,"CLASSIFICATION_TYPE":"U","NORAD_CAT_ID":50470,"ELEMENT_SET_NO":999,"REV_AT_EPOCH":18996,"BSTAR":-1.4306e-5,"MEAN_MOTION_DOT":7.0e-8,"MEAN_MOTION_DDOT":0},{"OBJECT_NAME":"ONEWEB-0391","OBJECT_ID":"2021-132C","EPOCH":"2025-11-15T16:04:09.647040","MEAN_MOTION":13.17652609,"ECCENTRICITY":8.96e-5,"INCLINATION":87.9128,"RA_OF_ASC_NODE":48.3428,"ARG_OF_PERICENTER":92.0027,"MEAN_ANOMALY":268.1208,"EPHEMERIS_TYPE":0,"CLASSIFICATION_TYPE":"U","NORAD_CAT_ID":50471,"ELEMENT_SET_NO":999,"REV_AT_EPOCH":18996,"BSTAR":-2.6551e-5,"MEAN_MOTION_DOT":3.0e-8,"MEAN_MOTION_DDOT":0}]
