ONEWEB-0375             
1 49301U 21090Y   25319.69305150  .00000035  00000+0  55215-4 0  9997
2 49301  87.9179 317.0146 0001303  95.5496 264.5786 13.20772866202348
ONEWEB-0376             
1 49302U 21090Z   25319.53656654  .00000081  00000+0  16889-3 0  9993
2 49302  87.9223 347.4636 0002089  96.8129 263.3241 13.19725441198273
ONEWEB-0377             
1 49303U 21090AA  25319.45171584 -.00000022  00000+0 -86793-4 0  9998
2 49303  87.9183 317.0614 0001736  84.4005 275.7327 13.20772309202301
ONEWEB-0378             
1 49304U 21090AB  25319.70107564  .00000049  00000+0  89326-4 0  9996
2 49304  87.9183 317.0268 0001730  92.3891 267.7441 13.20774462201604
ONEWEB-0379             
1 49305U 21090AC  25319.45135698 -.00000143  00000+0 -41907-3 0  9997
2 49305  87.8991 332.2883 0001838  96.5945 263.5394 13.14502338199485
ONEWEB-0380             
1 49306U 21090AD  25319.53340242  .00000094  00000+0  20223-3 0  9991
2 49306  87.9218 347.4877 0001497  94.3300 265.8004 13.19727303198244
ONEWEB-0381             
1 49307U 21090AE  25319.44841714 -.00000033  00000+0 -11406-3 0  9990
2 49307  87.9179 317.0665 0001592  92.5785 267.5531 13.20772606201610
ONEWEB-0382             
1 49308U 21090AF  25319.43579897  .00000051  00000+0  93933-4 0  9994
2 49308  87.9187 317.0630 0001604  97.3442 262.7874 13.20772271201603
ONEWEB-0383             
1 49309U 21090AG  25319.44499763 -.00000335  00000+0 -93699-3 0  9994
2 49309  87.8996 332.2735 0001777  98.9721 261.1610 13.14502724199518
ONEWEB-0384             
1 49310U 21090AH  25319.42974924  .00000050  00000+0  90510-4 0  9993
2 49310  87.9200 317.0980 0001580 104.9819 255.1490 13.20796998201619
ONEWEB-0385             
1 49311U 21090AJ  25319.50364544  .00000027  00000+0  34325-4 0  9990
2 49311  87.9181 317.0568 0001760  93.4284 266.7051 13.20770994201594
ONEWEB-0386             
1 49312U 21090AK  25319.44525721  .00000050  00000+0  91950-4 0  9993
2 49312  87.9185 317.0501 0001672  97.5106 262.6217 13.20773351201607
ONEWEB-0387             
1 49313U 21090AL  25319.50524212  .00000093  00000+0  19572-3 0  9991
2 49313  87.9179 317.0858 0001547  86.0507 274.0803 13.20772207201613
ONEWEB-0388             
1 49314U 21090AM  25319.83193354 -.00000045  00000+0 -14588-3 0  9998
2 49314  87.9207 347.4316 0001776  99.0478 261.0856 13.19726377198273
ONEWEB-0389             
1 50469U 21132A   25319.66619603  .00000025  00000+0  31456-4 0  9999
2 50469  87.9140  48.3293 0001361 107.2441 252.8839 13.17648588189965
ONEWEB-0390             
1 50470U 21132B   25319.66788899  .00000007  00000+0 -14306-4 0  9991
2 50470  87.9134  48.3332 0001782  93.4648 266.6687 13.17650747189960
ONEWEB-0391             
1 50471U 21132C   25319.66955610  .00000003  00000+0 -26551-4 0  9990
2 50471  87.9128  48.3428 0000896  92.0027 268.1208 13.17652609189966
